[{"OBJECT_NAME":"STARLINK-5433","OBJECT_ID":"2022-175AM","EPOCH":"2026-03-09T05:58:48.387360","MEAN_MOTION":15.08825022,"ECCENTRICITY":9.32e-5,"INCLINATION":53.2191,"RA_OF_ASC_NODE":21.1085,"ARG_OF_PERICENTER":87.8844,"MEAN_ANOMALY":272.2255,"EPHEMERIS_TYPE":0,"CLASSIFICATION_TYPE":"U","NORAD_CAT_ID":54793,"ELEMENT_SET_NO":999,"REV_AT_EPOCH":18020,"BSTAR":-0.00011011945,"MEAN_MOTION_DOT":-2.039e-5,"MEAN_MOTION_DDOT":0},{"OBJECT_NAME":"CZ-4C R\/B","OBJECT_ID":"2022-106B","EPOCH":"2026-03-09T16:53:51.363744","MEAN_MOTION":15.02433181,"ECCENTRICITY":0.01103472,"INCLINATION":98.0511,"RA_OF_ASC_NODE":147.9459,"ARG_OF_PERICENTER":124.4586,"MEAN_ANOMALY":236.7124,"EPHEMERIS_TYPE":0,"CLASSIFICATION_TYPE":"U","NORAD_CAT_ID":53699,"ELEMENT_SET_NO":999,"REV_AT_EPOCH":19198,"BSTAR":0.00037068081,"MEAN_MOTION_DOT":5.536e-5,"MEAN_MOTION_DDOT":0}]
